[{"OBJECT_NAME":"STARLINK-34159","OBJECT_ID":"2025-099A","EPOCH":"2026-03-09T07:14:34.490976","MEAN_MOTION":15.27585855,"ECCENTRICITY":7.115e-5,"INCLINATION":42.9985,"RA_OF_ASC_NODE":178.7036,"ARG_OF_PERICENTER":166.2044,"MEAN_ANOMALY":193.8827,"EPHEMERIS_TYPE":0,"CLASSIFICATION_TYPE":"U","NORAD_CAT_ID":63952,"ELEMENT_SET_NO":999,"REV_AT_EPOCH":4726,"BSTAR":0.0012653688,"MEAN_MOTION_DOT":0.00034728,"MEAN_MOTION_DDOT":0},{"OBJECT_NAME":"ELECTRON KICK STAGE R\/B","OBJECT_ID":"2019-069C","EPOCH":"2026-03-09T21:46:17.810112","MEAN_MOTION":14.3018174,"ECCENTRICITY":0.04358653,"INCLINATION":87.9001,"RA_OF_ASC_NODE":206.3408,"ARG_OF_PERICENTER":37.1425,"MEAN_ANOMALY":325.9095,"EPHEMERIS_TYPE":0,"CLASSIFICATION_TYPE":"U","NORAD_CAT_ID":44636,"ELEMENT_SET_NO":999,"REV_AT_EPOCH":33098,"BSTAR":0.0004662077,"MEAN_MOTION_DOT":3.501e-5,"MEAN_MOTION_DDOT":0}]
